<?xml version="1.0" encoding="utf-8"?>
<TLEdata username="username" password="password" currentTLEhistory="10" currentUpdateInterval="04:00:00">
  <satellites>
    <satellite ID="25544">
      <Satellite lastUpdate="15/04/2014 2:42:32 PM" TLEhistory="10">
        <TLEset name="ISS (ZARYA)">
          <line1>1 25544U 98067A   14103.51795378  .00069768  00000-0  12306-2 0   748</line1>
          <line2>2 25544 051.6476 060.0528 0003706 284.7313 182.8073 15.49742393881290</line2>
        </TLEset>
        <TLEset name="ISS (ZARYA)">
          <line1>1 25544U 98067A   14103.82960633  .00040742  00000-0  72469-3 0   759</line1>
          <line2>2 25544 051.6480 058.5095 0003576 285.8576 121.5221 15.49739952881342</line2>
        </TLEset>
        <TLEset name="ISS (ZARYA)">
          <line1>1 25544U 98067A   14103.89850352 -.00263023  00000-0 -48124-2 0   764</line1>
          <line2>2 25544 051.6443 058.1701 0005183 295.7356 136.2326 15.49653955881351</line2>
        </TLEset>
        <TLEset name="ISS (ZARYA)">
          <line1>1 25544U 98067A   14104.09852272  .00140872  00000-0  24536-2 0   776</line1>
          <line2>2 25544 051.6469 057.1808 0003921 282.6534 185.9771 15.49749967881384</line2>
        </TLEset>
        <TLEset name="ISS (ZARYA)">
          <line1>1 25544U 98067A   14105.70415799  .00022260  00000-0  39957-3 0   880</line1>
          <line2>2 25544 051.6511 049.2231 0003868 293.2440 139.4019 15.49806601881634</line2>
        </TLEset>
      </Satellite>
    </satellite>
    <satellite ID="36086">
      <Satellite lastUpdate="15/04/2014 2:42:27 PM" TLEhistory="10">
        <TLEset name="POISK">
          <line1>1 36086U 09060A   09347.53153955 +.00010424 +00000-0 +68124-4 0 00400</line1>
          <line2>2 36086 051.6436 105.0693 0007872 077.1437 032.9234 15.76500259634216</line2>
        </TLEset>
      </Satellite>
    </satellite>
    <satellite ID="39567">
      <Satellite lastUpdate="15/04/2014 2:42:32 PM" TLEhistory="10">
        <TLEset name="ARDUSAT 2">
          <line1>1 39567U 98067EL  14103.73700115  .00067035  00000-0  90793-3 0  1403</line1>
          <line2>2 39567 051.6493 057.8491 0007742 074.0412 353.7677 15.57029437  6896</line2>
        </TLEset>
        <TLEset name="ARDUSAT 2">
          <line1>1 39567U 98067EL  14105.28672524  .00074364  00000-0  99608-3 0  1459</line1>
          <line2>2 39567 051.6483 050.0893 0007488 084.4187 036.7154 15.57285064  7133</line2>
        </TLEset>
      </Satellite>
    </satellite>
    <satellite ID="39570">
      <Satellite lastUpdate="15/04/2014 2:42:32 PM" TLEhistory="10">
        <TLEset name="LITSAT 1">
          <line1>1 39570U 98067EP  14103.30007837  .00353555  00000-0  33429-2 0  1273</line1>
          <line2>2 39570 051.6443 059.2553 0006722 098.7883 051.7578 15.65292881  6813</line2>
        </TLEset>
        <TLEset name="LITSAT 1">
          <line1>1 39570U 98067EP  14105.46127612  .00300709  00000-0  27264-2 0  1325</line1>
          <line2>2 39570 051.6439 048.2924 0007179 122.5305 339.3285 15.66506089  7157</line2>
        </TLEset>
      </Satellite>
    </satellite>
    <satellite ID="37820">
      <Satellite lastUpdate="15/04/2014 2:42:32 PM" TLEhistory="10">
        <TLEset name="TIANGONG 1">
          <line1>1 37820U 11053A   14103.77315630  .00051609  00000-0  45681-3 0  9326</line1>
          <line2>2 37820 042.7733 341.8984 0011895 278.8168 164.3816 15.67722508145911</line2>
        </TLEset>
        <TLEset name="TIANGONG 1">
          <line1>1 37820U 11053A   14105.75016419 -.00038439  00000-0 -33454-3 0  9388</line1>
          <line2>2 37820 042.7696 329.9912 0013168 293.3631 162.2597 15.67889347146222</line2>
        </TLEset>
      </Satellite>
    </satellite>
    <satellite ID="39412">
      <Satellite lastUpdate="15/04/2014 2:42:32 PM" TLEhistory="10">
        <TLEset name="ARDUSAT 1">
          <line1>1 39412U 98067DA  14103.88220853  .02555537  15763-1  20021-2 0  4216</line1>
          <line2>2 39412 051.6327 040.8195 0005080 195.4292 164.6269 16.17939565 22760</line2>
        </TLEset>
        <TLEset name="ARDUSAT 1">
          <line1>1 39412U 98067DA  14105.54307455  .05113740  12154-4  78639-3 0  4273</line1>
          <line2>2 39412 051.6261 031.6566 0006446 218.8271 142.8599 16.33238556 23036</line2>
        </TLEset>
      </Satellite>
    </satellite>
    <satellite ID="39414">
      <Satellite lastUpdate="15/04/2014 2:42:32 PM" TLEhistory="10">
        <TLEset name="ARDUSAT X">
          <line1>1 39414U 98067DC  14104.05463151  .03654892  11852-4  17040-2 0  4184</line1>
          <line2>2 39414 051.6248 039.7101 0005743 197.2335 161.9627 16.20907937 22717</line2>
        </TLEset>
        <TLEset name="ARDUSAT X">
          <line1>1 39414U 98067DC  14105.28304926  .09668522  12258-4  10725-2 0  4246</line1>
          <line2>2 39414 051.6224 032.8952 0004130 233.8300 126.8093 16.36347728 22919</line2>
        </TLEset>
      </Satellite>
    </satellite>
    <satellite ID="39506">
      <Satellite lastUpdate="15/04/2014 2:42:32 PM" TLEhistory="10">
        <TLEset name="PROGRESS-M 22M">
          <line1>1 39506U 14005A   14104.07138881  .00037682  00000-0  50285-3 0   753</line1>
          <line2>2 39506 051.6490 057.0039 0025569 271.2565 188.8302 15.57324578 10467</line2>
        </TLEset>
        <TLEset name="PROGRESS-M 22M">
          <line1>1 39506U 14005A   14105.66856797  .00053160  00000-0  68143-3 0   832</line1>
          <line2>2 39506 051.6526 048.9868 0029941 299.5590 122.4253 15.58088371 10711</line2>
        </TLEset>
      </Satellite>
    </satellite>
    <satellite ID="39571">
      <Satellite lastUpdate="15/04/2014 2:42:32 PM" TLEhistory="10">
        <TLEset name="LITUANICASAT 1">
          <line1>1 39571U 98067EQ  14103.88962289  .00076976  00000-0  95357-3 0  1355</line1>
          <line2>2 39571 051.6502 056.6903 0007573 083.5424 312.1600 15.59346210  6907</line2>
        </TLEset>
        <TLEset name="LITUANICASAT 1">
          <line1>1 39571U 98067EQ  14105.50512914  .00091342  00000-0  11138-2 0  1406</line1>
          <line2>2 39571 051.6512 048.5720 0007404 073.7506 038.1290 15.59688608  7158</line2>
        </TLEset>
      </Satellite>
    </satellite>
    <satellite ID="39622">
      <Satellite lastUpdate="15/04/2014 2:42:27 PM" TLEhistory="10">
        <TLEset name="SOYUZ-TMA 12M">
          <line1>1 39622U 14013A   14086.76074313  .00021020  00000-0  36079-3 0   221</line1>
          <line2>2 39622 051.6495 143.1346 0003571 001.1015 102.8524 15.51116198   291</line2>
        </TLEset>
      </Satellite>
    </satellite>
    <satellite ID="39648">
      <Satellite lastUpdate="15/04/2014 2:42:27 PM" TLEhistory="10">
        <TLEset name="PROGRESS-M 23M">
          <line1>1 39648U 14018A   14101.62540509  .00017213  00000-0  30119-3 0    40</line1>
          <line2>2 39648 051.6489 069.4285 0002210 017.2275 321.1698 15.50720727   318</line2>
        </TLEset>
      </Satellite>
    </satellite>
  </satellites>
</TLEdata>